CCSDS_OMM_VERS = 2.0
CREATION_DATE  = 
ORIGINATOR     = 

OBJECT_NAME    = ATLAS CENTAUR 2
OBJECT_ID      = 1963-047A
CENTER_NAME    = EARTH
REF_FRAME      = TEME
TIME_SYSTEM    = UTC
MEAN_ELEMENT_THEORY = SGP/SGP4

EPOCH          = 2026-04-03T03:30:51.298848
MEAN_MOTION    = 14.12178510
ECCENTRICITY   = .05471972
INCLINATION    = 30.3579
RA_OF_ASC_NODE = 58.9541
ARG_OF_PERICENTER = 295.8372
MEAN_ANOMALY   = 58.6783

EPHEMERIS_TYPE = 0
CLASSIFICATION_TYPE = U
NORAD_CAT_ID   = 694
ELEMENT_SET_NO = 999
REV_AT_EPOCH   = 13508
BSTAR          = .50259124E-3
MEAN_MOTION_DOT = .4212E-4
MEAN_MOTION_DDOT = 0

CCSDS_OMM_VERS = 2.0
CREATION_DATE  = 
ORIGINATOR     = 

OBJECT_NAME    = THOR AGENA D R/B
OBJECT_ID      = 1964-002A
CENTER_NAME    = EARTH
REF_FRAME      = TEME
TIME_SYSTEM    = UTC
MEAN_ELEMENT_THEORY = SGP/SGP4

EPOCH          = 2026-04-03T12:01:24.125952
MEAN_MOTION    = 14.34034136
ECCENTRICITY   = .0032856
INCLINATION    = 99.1209
RA_OF_ASC_NODE = 108.1901
ARG_OF_PERICENTER = 184.5207
MEAN_ANOMALY   = 175.5683

EPHEMERIS_TYPE = 0
CLASSIFICATION_TYPE = U
NORAD_CAT_ID   = 733
ELEMENT_SET_NO = 999
REV_AT_EPOCH   = 24185
BSTAR          = .13606E-3
MEAN_MOTION_DOT = .334E-5
MEAN_MOTION_DDOT = 0

CCSDS_OMM_VERS = 2.0
CREATION_DATE  = 
ORIGINATOR     = 

OBJECT_NAME    = SL-3 R/B
OBJECT_ID      = 1964-053B
CENTER_NAME    = EARTH
REF_FRAME      = TEME
TIME_SYSTEM    = UTC
MEAN_ELEMENT_THEORY = SGP/SGP4

EPOCH          = 2026-04-03T12:48:01.238688
MEAN_MOTION    = 14.61387074
ECCENTRICITY   = .0080585
INCLINATION    = 65.0756
RA_OF_ASC_NODE = 258.3970
ARG_OF_PERICENTER = 284.4060
MEAN_ANOMALY   = 74.8106

EPHEMERIS_TYPE = 0
CLASSIFICATION_TYPE = U
NORAD_CAT_ID   = 877
ELEMENT_SET_NO = 999
REV_AT_EPOCH   = 27042
BSTAR          = .11527E-3
MEAN_MOTION_DOT = .472E-5
MEAN_MOTION_DDOT = 0

CCSDS_OMM_VERS = 2.0
CREATION_DATE  = 
ORIGINATOR     = 

OBJECT_NAME    = SL-8 R/B
OBJECT_ID      = 1967-045B
CENTER_NAME    = EARTH
REF_FRAME      = TEME
TIME_SYSTEM    = UTC
MEAN_ELEMENT_THEORY = SGP/SGP4

EPOCH          = 2026-04-03T13:21:47.661696
MEAN_MOTION    = 14.45642914
ECCENTRICITY   = .0065007
INCLINATION    = 74.0103
RA_OF_ASC_NODE = 301.6486
ARG_OF_PERICENTER = 302.4581
MEAN_ANOMALY   = 57.0301

EPHEMERIS_TYPE = 0
CLASSIFICATION_TYPE = U
NORAD_CAT_ID   = 2802
ELEMENT_SET_NO = 999
REV_AT_EPOCH   = 9261
BSTAR          = .14027E-3
MEAN_MOTION_DOT = .48E-5
MEAN_MOTION_DDOT = 0

CCSDS_OMM_VERS = 2.0
CREATION_DATE  = 
ORIGINATOR     = 

OBJECT_NAME    = SL-8 R/B
OBJECT_ID      = 1968-040B
CENTER_NAME    = EARTH
REF_FRAME      = TEME
TIME_SYSTEM    = UTC
MEAN_ELEMENT_THEORY = SGP/SGP4

EPOCH          = 2026-04-03T12:45:40.468896
MEAN_MOTION    = 15.03438826
ECCENTRICITY   = .0023345
INCLINATION    = 74.0290
RA_OF_ASC_NODE = 262.9225
ARG_OF_PERICENTER = 76.5674
MEAN_ANOMALY   = 283.8115

EPHEMERIS_TYPE = 0
CLASSIFICATION_TYPE = U
NORAD_CAT_ID   = 3230
ELEMENT_SET_NO = 999
REV_AT_EPOCH   = 9374
BSTAR          = .47155E-3
MEAN_MOTION_DOT = .6422E-4
MEAN_MOTION_DDOT = 0

CCSDS_OMM_VERS = 2.0
CREATION_DATE  = 
ORIGINATOR     = 

OBJECT_NAME    = OAO 2
OBJECT_ID      = 1968-110A
CENTER_NAME    = EARTH
REF_FRAME      = TEME
TIME_SYSTEM    = UTC
MEAN_ELEMENT_THEORY = SGP/SGP4

EPOCH          = 2026-04-03T04:54:34.479936
MEAN_MOTION    = 14.47322613
ECCENTRICITY   = .00052706
INCLINATION    = 34.9922
RA_OF_ASC_NODE = 128.3459
ARG_OF_PERICENTER = 29.0054
MEAN_ANOMALY   = 331.0929

EPHEMERIS_TYPE = 0
CLASSIFICATION_TYPE = U
NORAD_CAT_ID   = 3597
ELEMENT_SET_NO = 999
REV_AT_EPOCH   = 2265
BSTAR          = .11394889E-3
MEAN_MOTION_DOT = .404E-5
MEAN_MOTION_DDOT = 0

CCSDS_OMM_VERS = 2.0
CREATION_DATE  = 
ORIGINATOR     = 

OBJECT_NAME    = ISIS 1
OBJECT_ID      = 1969-009A
CENTER_NAME    = EARTH
REF_FRAME      = TEME
TIME_SYSTEM    = UTC
MEAN_ELEMENT_THEORY = SGP/SGP4

EPOCH          = 2026-04-03T03:29:56.908320
MEAN_MOTION    = 11.30420686
ECCENTRICITY   = .17078008
INCLINATION    = 88.4495
RA_OF_ASC_NODE = 152.6385
ARG_OF_PERICENTER = 39.8277
MEAN_ANOMALY   = 331.6329

EPHEMERIS_TYPE = 0
CLASSIFICATION_TYPE = U
NORAD_CAT_ID   = 3669
ELEMENT_SET_NO = 999
REV_AT_EPOCH   = 35129
BSTAR          = .13063002E-3
MEAN_MOTION_DOT = .2E-5
MEAN_MOTION_DDOT = 0

CCSDS_OMM_VERS = 2.0
CREATION_DATE  = 
ORIGINATOR     = 

OBJECT_NAME    = SERT 2
OBJECT_ID      = 1970-009A
CENTER_NAME    = EARTH
REF_FRAME      = TEME
TIME_SYSTEM    = UTC
MEAN_ELEMENT_THEORY = SGP/SGP4

EPOCH          = 2026-04-03T10:48:20.225376
MEAN_MOTION    = 13.58732365
ECCENTRICITY   = .0005747
INCLINATION    = 99.2794
RA_OF_ASC_NODE = 35.1934
ARG_OF_PERICENTER = 99.3141
MEAN_ANOMALY   = 9.9496

EPHEMERIS_TYPE = 0
CLASSIFICATION_TYPE = U
NORAD_CAT_ID   = 4327
ELEMENT_SET_NO = 999
REV_AT_EPOCH   = 78325
BSTAR          = .10458E-3
MEAN_MOTION_DOT = .35E-6
MEAN_MOTION_DDOT = 0

CCSDS_OMM_VERS = 2.0
CREATION_DATE  = 
ORIGINATOR     = 

OBJECT_NAME    = SL-3 R/B
OBJECT_ID      = 1971-028B
CENTER_NAME    = EARTH
REF_FRAME      = TEME
TIME_SYSTEM    = UTC
MEAN_ELEMENT_THEORY = SGP/SGP4

EPOCH          = 2026-04-03T12:12:12.218400
MEAN_MOTION    = 15.63465694
ECCENTRICITY   = .0015199
INCLINATION    = 81.2384
RA_OF_ASC_NODE = 21.3286
ARG_OF_PERICENTER = 184.5807
MEAN_ANOMALY   = 175.5311

EPHEMERIS_TYPE = 0
CLASSIFICATION_TYPE = U
NORAD_CAT_ID   = 5118
ELEMENT_SET_NO = 999
REV_AT_EPOCH   = 99254
BSTAR          = .67679E-3
MEAN_MOTION_DOT = .6322E-3
MEAN_MOTION_DDOT = 0

CCSDS_OMM_VERS = 2.0
CREATION_DATE  = 
ORIGINATOR     = 

OBJECT_NAME    = ASTEX 1
OBJECT_ID      = 1971-089A
CENTER_NAME    = EARTH
REF_FRAME      = TEME
TIME_SYSTEM    = UTC
MEAN_ELEMENT_THEORY = SGP/SGP4

EPOCH          = 2026-04-03T05:43:42.953376
MEAN_MOTION    = 14.50796481
ECCENTRICITY   = .0015717
INCLINATION    = 92.7084
RA_OF_ASC_NODE = 159.6930
ARG_OF_PERICENTER = 10.5334
MEAN_ANOMALY   = 349.6198

EPHEMERIS_TYPE = 0
CLASSIFICATION_TYPE = U
NORAD_CAT_ID   = 5560
ELEMENT_SET_NO = 999
REV_AT_EPOCH   = 86586
BSTAR          = .20126E-3
MEAN_MOTION_DOT = .792E-5
MEAN_MOTION_DDOT = 0

CCSDS_OMM_VERS = 2.0
CREATION_DATE  = 
ORIGINATOR     = 

OBJECT_NAME    = SL-8 R/B
OBJECT_ID      = 1971-119B
CENTER_NAME    = EARTH
REF_FRAME      = TEME
TIME_SYSTEM    = UTC
MEAN_ELEMENT_THEORY = SGP/SGP4

EPOCH          = 2026-04-03T11:48:34.301952
MEAN_MOTION    = 14.38331306
ECCENTRICITY   = .0546047
INCLINATION    = 73.8841
RA_OF_ASC_NODE = 129.3429
ARG_OF_PERICENTER = 90.7186
MEAN_ANOMALY   = 275.6538

EPHEMERIS_TYPE = 0
CLASSIFICATION_TYPE = U
NORAD_CAT_ID   = 5730
ELEMENT_SET_NO = 999
REV_AT_EPOCH   = 65905
BSTAR          = .6131E-3
MEAN_MOTION_DOT = .11745E-3
MEAN_MOTION_DDOT = 0

CCSDS_OMM_VERS = 2.0
CREATION_DATE  = 
ORIGINATOR     = 

OBJECT_NAME    = OAO 3 (COPERNICUS)
OBJECT_ID      = 1972-065A
CENTER_NAME    = EARTH
REF_FRAME      = TEME
TIME_SYSTEM    = UTC
MEAN_ELEMENT_THEORY = SGP/SGP4

EPOCH          = 2026-04-03T11:36:16.936704
MEAN_MOTION    = 14.60019052
ECCENTRICITY   = .0006669
INCLINATION    = 35.0046
RA_OF_ASC_NODE = 156.0505
ARG_OF_PERICENTER = 358.3210
MEAN_ANOMALY   = 18.8399

EPHEMERIS_TYPE = 0
CLASSIFICATION_TYPE = U
NORAD_CAT_ID   = 6153
ELEMENT_SET_NO = 999
REV_AT_EPOCH   = 84982
BSTAR          = .11585E-3
MEAN_MOTION_DOT = .544E-5
MEAN_MOTION_DDOT = 0

